CHINASAT 12 (ZX 12)     
1 39017U 12067A   24145.62222005 -.00000188  00000+0  00000+0 0  9997
2 39017   0.0451 106.5679 0003349 311.2982 136.3406  1.00271827 41951
EUTELSAT 70B            
1 39020U 12069A   24145.55179431 -.00000024  00000+0  00000+0 0  9998
2 39020   0.0650   7.7536 0003850  45.1078  98.9063  1.00271318 41953
YAMAL 402               
1 39022U 12070A   24145.54909660  .00000105  00000+0  00000+0 0  9995
2 39022   0.0141 332.8434 0003991  89.6758  72.6758  1.00269942 41841
SKYNET 5D               
1 39034U 12075A   24145.54866149  .00000118  00000+0  00000+0 0  9991
2 39034   0.0669   0.1363 0003899  68.2017  64.5654  1.00272010 41602
MEXSAT 3                
1 39035U 12075B   24145.54216076 -.00000006  00000+0  00000+0 0  9997
2 39035   0.0155   4.8540 0002218  50.1481 268.0042  1.00271132 41628
TDRS 11                 
1 39070U 13004A   24145.56699135  .00000096  00000+0  00000+0 0  9990
2 39070   2.7368  10.8635 0006495  42.1371 219.4694  1.00266118 39138
AMAZONAS 3              
1 39078U 13006A   24145.02506296 -.00000262  00000+0  00000+0 0  9992
2 39078   0.0292 190.4947 0002249 260.3497  99.2985  1.00272975 37346
AZERSPACE 1             
1 39079U 13006B   24145.32202252  .00000153  00000+0  00000+0 0  9999
2 39079   0.0458  94.0461 0001993 352.5764 317.6999  1.00271649 41240
SBIRS GEO-2 (USA 241)   
1 39120U 13011A   24145.38743240 -.00000239  00000+0  00000+0 0  9991
2 39120   2.9395  46.7887 0001825   8.8032 288.3498  1.00271248 40979
EUTELSAT 117 WEST A     
1 39122U 13012A   24145.54216076  .00000006  00000+0  00000+0 0  9995
2 39122   0.0234  26.4049 0003142  43.1436 251.4724  1.00272790 40876
ANIK G1                 
1 39127U 13014A   24145.51322149 -.00000054  00000+0  00000+0 0  9992
2 39127   0.0156 352.4045 0001546  57.7150 269.9320  1.00272055 40692
CHINASAT 11 (ZX 11)     
1 39157U 13020A   24145.62918457 -.00000271  00000+0  00000+0 0  9998
2 39157   0.0337 277.7144 0002538  71.1452 218.2698  1.00269746 40342
EUTELSAT 7B             
1 39163U 13022A   24145.24632712  .00000068  00000+0  00000+0 0  9995
2 39163   0.0697   6.7996 0005135  26.1301 305.0865  1.00270842 40409
WGS F5 (USA 243)        
1 39168U 13024A   24145.38429956 -.00000264  00000+0  00000+0 0  9990
2 39168   0.0195 328.7355 0000230 107.4206 252.1651  1.00269092 39601
SES-6                   
1 39172U 13026A   24145.31537166 -.00000241  00000+0  00000+0 0  9998
2 39172   0.0245  12.0382 0002251  46.2616 257.1362  1.00270109 40163
IRNSS-1A                
1 39199U 13034A   24143.89007759  .00000081  00000+0  00000+0 0  9998
2 39199  34.0234  74.8219 0018327 184.0361 357.5730  1.00276717 39793
MUOS-2                  
1 39206U 13036A   24145.56453291  .00000082  00000+0  00000+0 0  9992
2 39206   3.5892  40.2460 0050375 179.1571  49.3971  1.00271856 39630
ALPHASAT                
1 39215U 13038A   24145.47158198  .00000152  00000+0  00000+0 0  9990
2 39215   2.8903   7.7147 0002019  53.0094  16.4857  1.00277460 36460
INSAT-3D                
1 39216U 13038B   24145.61765406 -.00000137  00000+0  00000+0 0  9997
2 39216   0.0851  93.9434 0000677 225.3416 227.8548  1.00271924 39523
WGS F6 (USA 244)        
1 39222U 13041A   24145.37261501  .00000109  00000+0  00000+0 0  9996
2 39222   0.0153 324.7390 0000299  82.7468 193.9276  1.00271804 38496
ES'HAIL 1               
1 39233U 13044A   24145.47158198  .00000163  00000+0  00000+0 0  9999
2 39233   0.0508   0.5553 0002434  54.7042  22.5633  1.00270519 39073
GSAT-7                  
1 39234U 13044B   24145.48132851 -.00000058  00000+0  00000+0 0  9993
2 39234   0.1101  93.9404 0005628 189.9693 205.9342  1.00272096 37777
AMOS-4                  
1 39237U 13045A   24145.55109811  .00000027  00000+0  00000+0 0  9990
2 39237   0.0589 103.0905 0002273 289.1973 113.7260  1.00272194 39401
AEHF-3 (USA 246)        
1 39256U 13050A   24145.53643105  .00000152  00000+0  00000+0 0  9993
2 39256   3.4189  72.9454 0045644 180.6245  27.1856  1.00266230 38114
ASTRA 2E                
1 39285U 13056A   24145.47227816  .00000170  00000+0  00000+0 0  9991
2 39285   0.0569   3.1221 0002482  53.8913  24.0321  1.00271473 38887
FM-6                    
1 39360U 13058A   24145.50576388  .00000003  00000+0  00000+0 0  9997
2 39360   0.0149 329.8949 0000487 299.8899  38.7249  1.00272657 38503
RADUGA-1M 3             
1 39375U 13062A   24145.58025160  .00000172  00000+0  00000+0 0  9990
2 39375   4.0334  81.5722 0002524 200.1816 204.8179  1.00271507 38554
SES-8                   
1 39460U 13071A   24145.41388726 -.00000250  00000+0  00000+0 0  9995
2 39460   0.0160 279.8273 0003183 161.4255  45.2534  1.00269824 36877
INMARSAT 5-F1           
1 39476U 13073A   24145.40744759  .00000047  00000+0  00000+0 0  9998
2 39476   0.0179 343.0040 0000592 125.1743 343.6011  1.00272100 38036
TKSAT-1 (TUPAC KATARI)  
1 39481U 13075A   24145.37271737 -.00000175  00000+0  00000+0 0  9996
2 39481   0.0675 106.7539 0002713 304.6189 238.0695  1.00273080 38038
EXPRESS-AM5             
1 39487U 13077A   24145.27973810 -.00000260  00000+0  00000+0 0  9999
2 39487   0.0168 308.4793 0000251  60.8146 113.8199  1.00269760 38807
GSAT-14                 
1 39498U 14001A   24145.33808457 -.00000057  00000+0  00000+0 0  9994
2 39498   0.0676 103.7174 0001909 201.3186 133.1004  1.00271280 37820
THAICOM 6               
1 39500U 14002A   24145.61736204 -.00000102  00000+0  00000+0 0  9991
2 39500   0.0682 123.1828 0002993 350.9937  69.2675  1.00271009 37903
TDRS 12                 
1 39504U 14004A   24145.38691024 -.00000252  00000+0  00000+0 0  9997
2 39504   3.5528   2.8528 0002701 188.7597 149.2598  1.00273894 36715
ABS-2                   
1 39508U 14006A   24145.55309964 -.00000067  00000+0  00000+0 0  9995
2 39508   0.0617  97.1300 0003660 324.9226  94.6374  1.00271579 37728
ATHENA-FIDUS            
1 39509U 14006B   24145.22966102  .00000174  00000+0  00000+0 0  9991
2 39509   0.0111  15.9904 0001512  53.5632 293.2548  1.00269409 37512
TURKSAT 4A              
1 39522U 14007A   24145.26024505  .00000166  00000+0  00000+0 0  9994
2 39522   0.0415 268.4630 0001003 114.8071 354.7993  1.00274076 37410
EXPRESS-AT1             
1 39612U 14010A   24145.54927064  .00000098  00000+0  00000+0 0  9995
2 39612   0.0168 306.0902 0000091  58.5594 131.7308  1.00271853 37262
EXPRESS-AT2             
1 39613U 14010B   24145.48243549 -.00000262  00000+0  00000+0 0  9992
2 39613   0.0146 296.1242 0000642  90.9175 169.0518  1.00270423 37328
AMAZONAS 4A             
1 39616U 14011A   24145.48818354 -.00000233  00000+0  00000+0 0  9996
2 39616   0.0584 129.7453 0003709 302.9173 271.6871  1.00272657 37146
ASTRA 5B                
1 39617U 14011B   24145.47114685  .00000157  00000+0  00000+0 0  9996
2 39617   0.0598 313.0568 0002310 106.7237  15.9165  1.00272631 37119
IRNSS-1B                
1 39635U 14017A   24142.90071716  .00000109  00000+0  00000+0 0  9991
2 39635  29.0343 253.2712 0023204 182.1903 183.7488  1.00274746 37208
LUCH-5V                 
1 39727U 14023A   24145.62729222 -.00000251  00000+0  00000+0 0  9993
2 39727   3.2391  76.1808 0001827  22.3726 104.7144  1.00275153 36800
KAZSAT-3                
1 39728U 14023B   24145.47819569  .00000079  00000+0  00000+0 0  9998
2 39728   0.0143  51.4524 0000651  63.4230 358.3767  1.00273778 34898
EUTELSAT 3B             
1 39773U 14030A   24145.37063216  .00000040  00000+0  00000+0 0  9993
2 39773   0.0652   5.5651 0002600 102.3094 271.0937  1.00272794 36508
ASIASAT 8 (AMOS-7)      
1 40107U 14046A   24145.32268156 -.00000013  00000+0  00000+0 0  9999
2 40107   0.0269 257.4327 0002068 174.3901 282.8854  1.00271558 94584
ASIASAT 6               
1 40141U 14052A   24145.49355015 -.00000343  00000+0  00000+0 0  9999
2 40141   0.0216 274.4413 0000795 154.1585 111.5615  1.00269296 35515
OPTUS 10                
1 40146U 14054A   24144.78189587 -.00000127  00000+0  00000+0 0  9996
2 40146   0.0561 320.6693 0002881 120.4458 238.2454  1.00270079 35463
MEASAT-3B               
1 40147U 14054B   24145.62477242 -.00000223  00000+0  00000+0 0  9996
2 40147   0.0497  49.1457 0003302  19.2615 130.7089  1.00273476 35365
LUCH (OLYMP-K 1)        
1 40258U 14058A   24145.10486681 -.00000121  00000+0  00000+0 0  9990
2 40258   0.1071  90.7162 0001164 327.2456 203.8501  1.00269528 33431
HIMAWARI-8              
1 40267U 14060A   24145.48243549 -.00000256  00000+0  00000+0 0  9997
2 40267   0.0074 171.7513 0001171 281.9917 103.1771  1.00272062 35204
IRNSS-1C                
1 40269U 14061A   24145.48315597 -.00000143  00000+0  00000+0 0  9998
2 40269   4.6124 105.3285 0020841   1.7004  32.5335  1.00270062 35132
INTELSAT 30 (IS-30)     
1 40271U 14062A   24144.94661495 -.00000130  00000+0  00000+0 0  9999
2 40271   0.0110 347.8914 0001494   5.7559 134.1221  1.00270703 35038
ARSAT 1                 
1 40272U 14062B   24145.61285090 -.00000240  00000+0  00000+0 0  9990
2 40272   0.0378  54.0285 0001761   2.6810 334.8120  1.00270779 35058
EXPRESS-AM6             
1 40277U 14064A   24145.47715142  .00000117  00000+0  00000+0 0  9999
2 40277   0.0162 303.2170 0000909 155.4973   8.6358  1.00270784 34027
GSAT-16                 
1 40332U 14078A   24145.54909660  .00000104  00000+0  00000+0 0  9990
2 40332   0.0176 262.7890 0007915 173.1670  59.4464  1.00273956 34551
DIRECTV 14              
1 40333U 14078B   24145.30370593 -.00000105  00000+0  00000+0 0  9994
2 40333   0.0155 299.9006 0000460 178.7624 133.8424  1.00272739 34504
YAMAL 401               
1 40345U 14082A   24145.41293001 -.00000210  00000+0  00000+0 0  9999
2 40345   0.0153 312.0937 0000576 154.3497  14.6806  1.00275048 34361
ASTRA 2G                
1 40364U 14089A   24145.33313170  .00000170  00000+0  00000+0 0  9992
2 40364   0.0538  31.3441 0005225  33.8748 325.3432  1.00272519 34408
